[{"OBJECT_NAME":"TIANMU-1 22","OBJECT_ID":"2023-208D","EPOCH":"2026-03-09T22:39:05.738688","MEAN_MOTION":15.29457749,"ECCENTRICITY":0.00031332,"INCLINATION":97.4379,"RA_OF_ASC_NODE":184.9419,"ARG_OF_PERICENTER":351.9312,"MEAN_ANOMALY":8.1877,"EPHEMERIS_TYPE":0,"CLASSIFICATION_TYPE":"U","NORAD_CAT_ID":58663,"ELEMENT_SET_NO":999,"REV_AT_EPOCH":12215,"BSTAR":0.00038239675,"MEAN_MOTION_DOT":0.00010851,"MEAN_MOTION_DDOT":0},{"OBJECT_NAME":"STARLINK-31778","OBJECT_ID":"2024-080B","EPOCH":"2026-03-09T06:16:57.991584","MEAN_MOTION":15.27576235,"ECCENTRICITY":0.00010359,"INCLINATION":43.0012,"RA_OF_ASC_NODE":37.174,"ARG_OF_PERICENTER":252.2473,"MEAN_ANOMALY":107.8266,"EPHEMERIS_TYPE":0,"CLASSIFICATION_TYPE":"U","NORAD_CAT_ID":59602,"ELEMENT_SET_NO":999,"REV_AT_EPOCH":10450,"BSTAR":3.540937e-6,"MEAN_MOTION_DOT":-1.65e-6,"MEAN_MOTION_DDOT":0}]
